NORAD_CAT_ID,OBJECT_NAME,OBJECT_TYPE,EPOCH,MEAN_MOTION,ECCENTRICITY,INCLINATION,RA_OF_ASC_NODE,ARG_OF_PERICENTER,MEAN_ANOMALY,BSTAR,MEAN_MOTION_DOT,MEAN_MOTION_DDOT,TLE_LINE0,TLE_LINE1,TLE_LINE2,SEMIMAJOR_AXIS,PERIOD,APOGEE,PERIGEE,DECAYED
51992.0,STARLINK-3643,PAYLOAD,2022-08-10 14:00:01,15.08811027,0.000166,53.2171,126.9527,63.0214,100.1928,0.0029271,0.00046568,0.0,0 STARLINK-3643,1 51992U 22025AN  22222.58334491  .00046568  00000-0  29271-2 0  9996,2 51992  53.2171 126.9527 0001660  63.0214 100.1928 15.08811027  1306,6917.969,95.439,540.982,538.686,0.0
51992.0,STARLINK-3643,PAYLOAD,2022-08-10 22:00:00,15.08849753,0.0001776,53.2173,125.4574,61.8563,112.9311,-0.0013138,-0.00021142,0.0,0 STARLINK-3643,1 51992U 22025AN  22222.91667824 -.00021142  00000-0 -13138-2 0  9990,2 51992  53.2173 125.4574 0001776  61.8563 112.9311 15.08849753 25170,6917.851,95.437,540.944,538.487,0.0
51992.0,STARLINK-3643,PAYLOAD,2022-08-11 14:00:01,15.08813375,0.000159,53.2172,122.4638,63.5174,134.4827,0.0017651,0.00027895,0.0,0 STARLINK-3643,1 51992U 22025AN  22223.58334491  .00027895  00000-0  17651-2 0  9998,2 51992  53.2172 122.4638 0001590  63.5174 134.4827 15.08813375  1309,6917.962,95.439,540.927,538.727,0.0
51992.0,STARLINK-3643,PAYLOAD,2022-08-11 20:00:01,15.08845375,0.0001635,53.2174,121.3423,63.6319,53.0429,-0.0011792,-0.00019009,0.0,0 STARLINK-3643,1 51992U 22025AN  22223.83334491 -.00019009  00000-0 -11792-2 0  9996,2 51992  53.2174 121.3423 0001635  63.6319  53.0429 15.08845375 25319,6917.864000000001,95.437,540.86,538.5980000000002,0.0
51992.0,STARLINK-3643,PAYLOAD,2022-08-12 12:00:00,15.08844947,0.0001604,53.2169,118.3492,64.69,75.1805,0.00035841,5.421e-05,0.0,0 STARLINK-3643,1 51992U 22025AN  22224.50001157  .00005421  00000-0  35841-3 0  9994,2 51992  53.2169 118.3492 0001604  64.6900  75.1805 15.08844947 25416,6917.865,95.437,540.84,538.621,0.0
51992.0,STARLINK-3643,PAYLOAD,2022-08-12 14:00:01,15.08841662,0.0001614,53.2167,117.9748,66.717,166.0566,0.00064046,9.92e-05,0.0,0 STARLINK-3643,1 51992U 22025AN  22224.58334491  .00009920  00000-0  64046-3 0  9999,2 51992  53.2167 117.9748 0001614  66.7170 166.0566 15.08841662  1303,6917.875,95.437,540.857,538.624,0.0
51992.0,STARLINK-3643,PAYLOAD,2022-08-12 22:00:01,15.08838556,0.0001768,53.2167,116.4799,64.3442,180.0912,-0.00087447,-0.00014178,0.0,0 STARLINK-3643,1 51992U 22025AN  22224.91668981 -.00014178  00000-0 -87447-3 0  9993,2 51992  53.2167 116.4799 0001768  64.3442 180.0912 15.08838556  1308,6917.885,95.438,540.9730000000002,538.5269999999998,0.0
51992.0,STARLINK-3643,PAYLOAD,2022-08-13 04:00:00,15.08823482,0.0001795,53.2163,115.3581,60.3992,102.666,0.0010923,0.00017131,0.0,0 STARLINK-3643,1 51992U 22025AN  22225.16667824  .00017131  00000-0  10923-2 0  9990,2 51992  53.2163 115.3581 0001795  60.3992 102.6660 15.08823482 25518,6917.931,95.439,541.038,538.554,0.0
51992.0,STARLINK-3643,PAYLOAD,2022-08-13 14:00:01,15.08792357,0.0001618,53.216,113.4857,68.5953,198.9541,0.0030491999999999,0.00048511,0.0,0 STARLINK-3643,1 51992U 22025AN  22225.58334491  .00048511  00000-0  30492-2 0  9996,2 51992  53.2160 113.4857 0001618  68.5953 198.9541 15.08792357  1304,6918.026,95.441,541.01,538.7719999999998,0.0
51992.0,STARLINK-3643,PAYLOAD,2022-08-13 22:00:00,15.08828258,0.000172,53.2159,111.9909,64.809,214.3,-0.00090309,-0.00014627,0.0,0 STARLINK-3643,1 51992U 22025AN  22225.91667824 -.00014627  00000-0 -90309-3 0  9999,2 51992  53.2159 111.9909 0001720  64.8090 214.3000 15.08828258  1301,6917.916,95.438,540.971,538.591,0.0
51992.0,STARLINK-3643,PAYLOAD,2022-08-14 12:00:00,15.08817202,0.0001635,53.2155,109.3707,67.8527,141.5315,0.0025155,0.00039948,0.0,0 STARLINK-3643,1 51992U 22025AN  22226.50001157  .00039948  00000-0  25155-2 0  9993,2 51992  53.2155 109.3707 0001635  67.8527 141.5315 15.08817202 25715,6917.95,95.439,540.946,538.684,0.0
51992.0,STARLINK-3643,PAYLOAD,2022-08-14 14:00:01,15.08815831,0.0001662,53.2154,108.9964,69.8927,232.3884,0.003261,0.00051959,0.0,0 STARLINK-3643,1 51992U 22025AN  22226.58334491  .00051959  00000-0  32610-2 0  9991,2 51992  53.2154 108.9964 0001662  69.8927 232.3884 15.08815831  1305,6917.954000000002,95.439,540.969,538.67,0.0
51992.0,STARLINK-3643,PAYLOAD,2022-08-14 22:00:00,15.08858948,0.0001742,53.2153,107.5015,64.6924,249.1745,-0.0022264,-0.00035565,0.0,0 STARLINK-3643,1 51992U 22025AN  22226.91667824 -.00035565  00000-0 -22264-2 0  9998,2 51992  53.2153 107.5015 0001742  64.6924 249.1745 15.08858948  1303,6917.821999999999,95.436,540.893,538.482,0.0
51992.0,STARLINK-3643,PAYLOAD,2022-08-15 04:00:00,15.08830588,0.0001719,53.2152,106.3794,60.2661,172.3073,0.00028517,4.252e-05,0.0,0 STARLINK-3643,1 51992U 22025AN  22227.16667824  .00004252  00000-0  28517-3 0  9991,2 51992  53.2152 106.3794 0001719  60.2661 172.3073 15.08830588 25810,6917.909000000002,95.438,540.9630000000002,538.585,0.0
51992.0,STARLINK-3643,PAYLOAD,2022-08-15 14:00:01,15.08809792,0.0001618,53.2152,104.5068,68.7893,268.2706,0.0031831999999999,0.00050695,0.0,0 STARLINK-3643,1 51992U 22025AN  22227.58334491  .00050695  00000-0  31832-2 0  9993,2 51992  53.2152 104.5068 0001618  68.7893 268.2706 15.08809792  1301,6917.973000000001,95.439,540.957,538.7180000000002,0.0
51992.0,STARLINK-3643,PAYLOAD,2022-08-15 22:00:00,15.08841653,0.000176,53.2153,103.0119,63.1989,285.4385,-0.00073869,-0.00012026,0.0,0 STARLINK-3643,1 51992U 22025AN  22227.91667824 -.00012026  00000-0 -73869-3 0  9994,2 51992  53.2153 103.0119 0001760  63.1989 285.4385 15.08841653  1302,6917.875,95.437,540.9580000000002,538.523,0.0
51992.0,STARLINK-3643,PAYLOAD,2022-08-16 04:00:01,15.08835147,0.0001749,53.2153,101.8898,59.9538,207.4421,0.0016316,0.00025771,0.0,0 STARLINK-3643,1 51992U 22025AN  22228.16668981  .00025771  00000-0  16316-2 0  9999,2 51992  53.2153 101.8898 0001749  59.9538 207.4421 15.08835147 25966,6917.895,95.438,540.97,538.55,0.0
51992.0,STARLINK-3643,PAYLOAD,2022-08-16 14:00:01,15.08838594,0.0001655,53.2156,100.0172,68.4588,303.3802,0.0022666,0.00035968,0.0,0 STARLINK-3643,1 51992U 22025AN  22228.58334491  .00035968  00000-0  22666-2 0  9995,2 51992  53.2156 100.0172 0001655  68.4588 303.3802 15.08838594  1301,6917.885,95.438,540.895,538.605,0.0
51992.0,STARLINK-3643,PAYLOAD,2022-08-16 22:00:00,15.08851607,0.0001754999999999,53.2158,98.5224,61.9774,321.4706,-0.0022954,-0.00036646,0.0,0 STARLINK-3643,1 51992U 22025AN  22228.91667824 -.00036646  00000-0 -22954-2 0  9997,2 51992  53.2158  98.5224 0001755  61.9774 321.4706 15.08851607 26084,6917.845,95.437,540.924,538.496,0.0
51992.0,STARLINK-3643,PAYLOAD,2022-08-17 14:00:01,15.08827857,0.0001565999999999,53.2163,95.5278,66.8959,339.7427,0.00023639,3.475e-05,0.0,0 STARLINK-3643,1 51992U 22025AN  22229.58334491  .00003475  00000-0  23639-3 0  9996,2 51992  53.2163  95.5278 0001566  66.8959 339.7427 15.08827857 26188,6917.918000000002,95.438,540.866,538.6990000000002,0.0
51992.0,STARLINK-3643,PAYLOAD,2022-08-17 16:00:00,15.08835831,0.0001576999999999,53.2165,95.1539,66.768,72.7641,-0.00058233,-9.543e-05,0.0,0 STARLINK-3643,1 51992U 22025AN  22229.66667824 -.00009543  00000-0 -58233-3 0  9996,2 51992  53.2165  95.1539 0001577  66.7680  72.7641 15.08835831  1308,6917.893,95.438,540.849,538.6669999999998,0.0
51992.0,STARLINK-3643,PAYLOAD,2022-08-18 14:00:01,15.08844936,0.0001598,53.2168,91.0386,67.8226,13.5778,-0.00042451,-7.039e-05,0.0,0 STARLINK-3643,1 51992U 22025AN  22230.58334491 -.00007039  00000-0 -42451-3 0  9993,2 51992  53.2168  91.0386 0001598  67.8226  13.5778 15.08844936  1307,6917.865,95.437,540.836,538.625,0.0
51992.0,STARLINK-3643,PAYLOAD,2022-08-18 22:00:00,15.08827907,0.0001761999999999,53.2168,89.544,62.4301,30.5715,-1.7987999999999998e-05,-5.74e-06,0.0,0 STARLINK-3643,1 51992U 22025AN  22230.91667824 -.00000574  00000-0 -17988-4 0  9994,2 51992  53.2168  89.5440 0001762  62.4301  30.5715 15.08827907 26382,6917.917,95.438,541.001,538.563,0.0
51992.0,STARLINK-3643,PAYLOAD,2022-08-19 14:00:01,15.08848624,0.0001601,53.2171,86.5497,70.0079,46.1664,-0.00019546,-3.398e-05,0.0,0 STARLINK-3643,1 51992U 22025AN  22231.58334491 -.00003398  00000-0 -19546-3 0  9997,2 51992  53.2171  86.5497 0001601  70.0079  46.1664 15.08848624  1304,6917.854,95.437,540.827,538.611,0.0
51992.0,STARLINK-3643,PAYLOAD,2022-08-19 22:00:00,15.08821243,0.0001629999999999,53.217,85.0552,61.8913,65.8864,-0.00043593,-7.216e-05,0.0,0 STARLINK-3643,1 51992U 22025AN  22231.91667824 -.00007216  00000-0 -43593-3 0  9995,2 51992  53.2170  85.0552 0001630  61.8913  65.8864 15.08821243  1304,6917.938,95.439,540.93,538.675,0.0
51992.0,STARLINK-3643,PAYLOAD,2022-08-20 04:00:00,15.08830378,0.0001585999999999,53.2166,83.9325,59.9504,346.5004,-0.00068451,-0.00011163,0.0,0 STARLINK-3643,1 51992U 22025AN  22232.16667824 -.00011163  00000-0 -68451-3 0  9999,2 51992  53.2166  83.9325 0001586  59.9504 346.5004 15.08830378 26578,6917.91,95.438,540.872,538.678,0.0
51992.0,STARLINK-3643,PAYLOAD,2022-08-20 14:00:01,15.08828302,0.0001519,53.217,82.0609,71.1888,79.7359,0.0013277999999999,0.0002089999999999,0.0,0 STARLINK-3643,1 51992U 22025AN  22232.58334491  .00020900  00000-0  13278-2 0  9999,2 51992  53.2170  82.0609 0001519  71.1888  79.7359 15.08828302  1301,6917.916,95.438,540.832,538.73,0.0
51992.0,STARLINK-3643,PAYLOAD,2022-08-20 22:00:00,15.08828663,0.0001623,53.2167,80.5665,63.0407,99.4749,0.00067772,0.00010511,0.0,0 STARLINK-3643,1 51992U 22025AN  22232.91667824  .00010511  00000-0  67772-3 0  9991,2 51992  53.2167  80.5665 0001623  63.0407  99.4749 15.08828663 26685,6917.915,95.438,540.903,538.6569999999998,0.0
51992.0,STARLINK-3643,PAYLOAD,2022-08-21 14:00:01,15.08843357,0.0001548,53.2166,77.5722,72.6874,113.0015,0.0007252999999999,0.00011275,0.0,0 STARLINK-3643,1 51992U 22025AN  22233.58334491  .00011275  00000-0  72530-3 0  9992,2 51992  53.2166  77.5722 0001548  72.6874 113.0015 15.08843357  1302,6917.87,95.437,540.806,538.664,0.0
